STARLINK-35885          
1 66890U 25283N   26149.00737616  .00044268  00000+0  13125-2 0  9998
2 66890  53.1609  10.9219 0000675 110.2742 249.8333 15.34427084 28147
STARLINK-35855          
1 66891U 25283P   26149.01929735  .00020923  00000+0  71643-3 0  9997
2 66891  53.1606  10.9961 0001074 102.9122 257.1999 15.30206336 28144
STARLINK-35883          
1 66892U 25283Q   26149.01613177  .00044286  00000+0  14975-2 0  9990
2 66892  53.1608  10.9767 0000950  99.4132 260.6976 15.30221072 28142
STARLINK-36033          
1 66893U 25283R   26148.99302780  .00037998  00000+0  12879-2 0  9995
2 66893  53.1605  11.5442 0000584 110.8538 249.2526 15.30213925 28139
STARLINK-35718          
1 66894U 25283S   26149.16671295  .00017928  00000+0  61636-3 0  9993
2 66894  53.1604  10.2096 0001076  68.4970  76.4827 15.30178644  5806
STARLINK-35971          
1 66895U 25283T   26148.99264896  .00029560  00000+0  88213-3 0  9994
2 66895  53.1606  10.8318 0000391 207.7419 152.3562 15.34414851 28146
STARLINK-35791          
1 66896U 25283U   26148.93393013  .00032324  00000+0  10988-2 0  9998
2 66896  53.1612  11.1740 0001116 106.9019 253.2104 15.30198599 28135
STARLINK-36079          
1 66897U 25283V   26149.02421388  .00046065  00000+0  13660-2 0  9994
2 66897  53.1609  11.0280 0001024  95.5360 264.5760 15.34403972 28131
STARLINK-36065          
1 66898U 25283W   26148.91068272  .00032174  00000+0  95874-3 0  9995
2 66898  53.1590  11.0375 0001026  83.5117 276.6003 15.34417983 28136
STARLINK-36064          
1 66899U 25283X   26148.91699572  .00026663  00000+0  79735-3 0  9993
2 66899  53.1594  11.0684 0000597  94.9068 265.2003 15.34404212 28132
STARLINK-36074          
1 66900U 25283Y   26149.00317333  .00028445  00000+0  84973-3 0  9999
2 66900  53.1610  10.8954 0000955  99.8657 260.2453 15.34403051 28142
STARLINK-36043          
1 66901U 25283Z   26148.91489262  .00030598  00000+0  91280-3 0  9991
2 66901  53.1598  11.0560 0000849  91.9038 268.2062 15.34408428 28138
STARLINK-35983          
1 66902U 25283AA  26149.13133856  .00034256  00000+0  10202-2 0  9991
2 66902  53.1609  10.2710 0001135 111.6502 248.4622 15.34405421 28160
STARLINK-36077          
1 66903U 25283AB  26149.16671295  .00023590  00000+0  70766-3 0  9990
2 66903  53.1607  10.2439 0000890  82.0924  43.7275 15.34375039  5866
STARLINK-36059          
1 66904U 25283AC  26149.00004630  .00050338  00000+0  17022-2 0  9992
2 66904  53.1608  11.0736 0001377  74.3253 185.4878 15.30162631  5880
STARLINK-36075          
1 66905U 25283AD  26148.99197304  .00018855  00000+0  64700-3 0  9995
2 66905  53.1603  11.5353 0001060 100.4416 259.6704 15.30206467 28138
DUPLEX                  
1 66906U 98067XS  26149.17727190  .00053487  00000+0  62442-3 0  9990
2 66906  51.6298  25.3717 0004710 115.3770 244.7712 15.61072848 27683
ISS OBJECT XY           
1 66912U 98067XY  26148.94566391  .00288435  00000+0  11725-2 0  9995
2 66912  51.6227  15.4700 0004713 191.8491 168.2402 15.84855271 27787
2025-284A               
1 66913U 25284A   26148.92035556  .00000152  00000+0  10196-3 0  9999
2 66913  80.4049 309.4504 0010524 291.1340  68.8696 13.97337301 24791
2025-284B               
1 66914U 25284B   26148.92766669  .00000135  00000+0  89885-4 0  9999
2 66914  80.3973 309.3290 0010710 288.7167  71.2832 13.97317641 24799
HULIANWANG DIGUI-105    
1 66915U 25285A   26149.15559764 -.00000067  00000+0  12363-3 0  9994
2 66915  50.0039 214.4761 0001131 225.2660 134.8120 13.29322424 23523
HULIANWANG DIGUI-106    
1 66916U 25285B   26149.22239356 -.00000071  00000+0  11512-3 0  9995
2 66916  50.0054 214.1795 0001151 225.6425 134.4353 13.29323118 23536
HULIANWANG DIGUI-107    
1 66917U 25285C   26148.46221743 -.00000077  00000+0  10175-3 0  9992
2 66917  50.0017 216.7829 0001085 224.8546 135.2239 13.29325722 23437
HULIANWANG DIGUI-108    
1 66918U 25285D   26149.20563653 -.00000068  00000+0  12065-3 0  9995
2 66918  50.0040 214.0737 0001084 228.2733 131.8046 13.29325705 23538
HULIANWANG DIGUI-109    
1 66919U 25285E   26149.19703351 -.00000068  00000+0  12030-3 0  9997
2 66919  50.0062 214.0648 0001056 230.4577 129.6201 13.29337247 23547
HULIANWANG DIGUI-110    
1 66920U 25285F   26149.11379731 -.00000075  00000+0  10675-3 0  9993
2 66920  50.0096 214.3381 0001027 226.8404 133.2382 13.29326167 23527
HULIANWANG DIGUI-111    
1 66921U 25285G   26148.50402326 -.00000084  00000+0  86547-4 0  9995
2 66921  50.0112 216.4754 0001030 225.2485 134.8304 13.29325627 23442
HULIANWANG DIGUI-112    
1 66922U 25285H   26148.64598987 -.00000076  00000+0  10364-3 0  9994
2 66922  50.0074 215.8416 0001102 225.0622 135.0161 13.29325431 23468
HULIANWANG DIGUI-113    
1 66923U 25285J   26149.16394044 -.00000068  00000+0  12049-3 0  9994
2 66923  50.0083 213.9244 0001128 227.0805 132.9973 13.29324008 23534
STARLINK-35945          
1 66925U 25286A   26148.98513741  .00016174  00000+0  48866-3 0  9993
2 66925  53.1596 345.2520 0001081  91.2588 268.8539 15.34408024 27712
