OBJECT_NAME,OBJECT_ID,EPOCH,MEAN_MOTION,ECCENTRICITY,INCLINATION,RA_OF_ASC_NODE,ARG_OF_PERICENTER,MEAN_ANOMALY,EPHEMERIS_TYPE,CLASSIFICATION_TYPE,NORAD_CAT_ID,ELEMENT_SET_NO,REV_AT_EPOCH,BSTAR,MEAN_MOTION_DOT,MEAN_MOTION_DDOT
STARLINK-35885,2025-283N,2026-05-29T00:10:37.300224,15.34427084,.0000675,53.1609,10.9219,110.2742,249.8333,0,U,66890,999,2814,.13125E-2,.44268E-3,0
STARLINK-35855,2025-283P,2026-05-29T00:27:47.291040,15.30206336,.0001074,53.1606,10.9961,102.9122,257.1999,0,U,66891,999,2814,.71643E-3,.20923E-3,0
STARLINK-35883,2025-283Q,2026-05-29T00:23:13.784928,15.30221072,.000095,53.1608,10.9767,99.4132,260.6976,0,U,66892,999,2814,.14975E-2,.44286E-3,0
STARLINK-36033,2025-283R,2026-05-28T23:49:57.601920,15.30213925,.0000584,53.1605,11.5442,110.8538,249.2526,0,U,66893,999,2813,.12879E-2,.37998E-3,0
STARLINK-35718,2025-283S,2026-05-29T04:00:03.998880,15.30178644,.0001076,53.1604,10.2096,68.4970,76.4827,0,U,66894,999,580,.61636E-3,.17928E-3,0
STARLINK-35971,2025-283T,2026-05-28T23:49:24.870144,15.34414851,.0000391,53.1606,10.8318,207.7419,152.3562,0,U,66895,999,2814,.88213E-3,.2956E-3,0
STARLINK-35791,2025-283U,2026-05-28T22:24:51.563232,15.30198599,.0001116,53.1612,11.1740,106.9019,253.2104,0,U,66896,999,2813,.10988E-2,.32324E-3,0
STARLINK-36079,2025-283V,2026-05-29T00:34:52.079232,15.34403972,.0001024,53.1609,11.0280,95.5360,264.5760,0,U,66897,999,2813,.1366E-2,.46065E-3,0
STARLINK-36065,2025-283W,2026-05-28T21:51:22.987008,15.34417983,.0001026,53.1590,11.0375,83.5117,276.6003,0,U,66898,999,2813,.95874E-3,.32174E-3,0
STARLINK-36064,2025-283X,2026-05-28T22:00:28.430208,15.34404212,.0000597,53.1594,11.0684,94.9068,265.2003,0,U,66899,999,2813,.79735E-3,.26663E-3,0
STARLINK-36074,2025-283Y,2026-05-29T00:04:34.175712,15.34403051,.0000955,53.1610,10.8954,99.8657,260.2453,0,U,66900,999,2814,.84973E-3,.28445E-3,0
STARLINK-36043,2025-283Z,2026-05-28T21:57:26.722368,15.34408428,.0000849,53.1598,11.0560,91.9038,268.2062,0,U,66901,999,2813,.9128E-3,.30598E-3,0
STARLINK-35983,2025-283AA,2026-05-29T03:09:07.651584,15.34405421,.0001135,53.1609,10.2710,111.6502,248.4622,0,U,66902,999,2816,.10202E-2,.34256E-3,0
STARLINK-36077,2025-283AB,2026-05-29T04:00:03.998880,15.34375039,.000089,53.1607,10.2439,82.0924,43.7275,0,U,66903,999,586,.70766E-3,.2359E-3,0
STARLINK-36059,2025-283AC,2026-05-29T00:00:04.000320,15.30162631,.0001377,53.1608,11.0736,74.3253,185.4878,0,U,66904,999,588,.17022E-2,.50338E-3,0
STARLINK-36075,2025-283AD,2026-05-28T23:48:26.470656,15.30206467,.000106,53.1603,11.5353,100.4416,259.6704,0,U,66905,999,2813,.647E-3,.18855E-3,0
DUPLEX,1998-067XS,2026-05-29T04:15:16.292160,15.61072848,.000471,51.6298,25.3717,115.3770,244.7712,0,U,66906,999,2768,.62442E-3,.53487E-3,0
ISS OBJECT XY,1998-067XY,2026-05-28T22:41:45.361824,15.84855271,.0004713,51.6227,15.4700,191.8491,168.2402,0,U,66912,999,2778,.11725E-2,.288435E-2,0
2025-284A,2025-284A,2026-05-28T22:05:18.720384,13.97337301,.0010524,80.4049,309.4504,291.1340,68.8696,0,U,66913,999,2479,.10196E-3,.152E-5,0
2025-284B,2025-284B,2026-05-28T22:15:50.402016,13.97317641,.001071,80.3973,309.3290,288.7167,71.2832,0,U,66914,999,2479,.89885E-4,.135E-5,0
HULIANWANG DIGUI-105,2025-285A,2026-05-29T03:44:03.636096,13.29322424,.0001131,50.0039,214.4761,225.2660,134.8120,0,U,66915,999,2352,.12363E-3,-.67E-6,0
HULIANWANG DIGUI-106,2025-285B,2026-05-29T05:20:14.803584,13.29323118,.0001151,50.0054,214.1795,225.6425,134.4353,0,U,66916,999,2353,.11512E-3,-.71E-6,0
HULIANWANG DIGUI-107,2025-285C,2026-05-28T11:05:35.585952,13.29325722,.0001085,50.0017,216.7829,224.8546,135.2239,0,U,66917,999,2343,.10175E-3,-.77E-6,0
HULIANWANG DIGUI-108,2025-285D,2026-05-29T04:56:06.996192,13.29325705,.0001084,50.0040,214.0737,228.2733,131.8046,0,U,66918,999,2353,.12065E-3,-.68E-6,0
HULIANWANG DIGUI-109,2025-285E,2026-05-29T04:43:43.695264,13.29337247,.0001056,50.0062,214.0648,230.4577,129.6201,0,U,66919,999,2354,.1203E-3,-.68E-6,0
HULIANWANG DIGUI-110,2025-285F,2026-05-29T02:43:52.087584,13.29326167,.0001027,50.0096,214.3381,226.8404,133.2382,0,U,66920,999,2352,.10675E-3,-.75E-6,0
HULIANWANG DIGUI-111,2025-285G,2026-05-28T12:05:47.609664,13.29325627,.000103,50.0112,216.4754,225.2485,134.8304,0,U,66921,999,2344,.86547E-4,-.84E-6,0
HULIANWANG DIGUI-112,2025-285H,2026-05-28T15:30:13.524768,13.29325431,.0001102,50.0074,215.8416,225.0622,135.0161,0,U,66922,999,2346,.10364E-3,-.76E-6,0
HULIANWANG DIGUI-113,2025-285J,2026-05-29T03:56:04.454016,13.29324008,.0001128,50.0083,213.9244,227.0805,132.9973,0,U,66923,999,2353,.12049E-3,-.68E-6,0
STARLINK-35945,2025-286A,2026-05-28T23:38:35.872224,15.34408024,.0001081,53.1596,345.2520,91.2588,268.8539,0,U,66925,999,2771,.48866E-3,.16174E-3,0
